STARLINK-1279           
1 45360U 20019A   24125.45543120 -.00000170  00000+0  75158-5 0  9997
2 45360  53.0532 283.3690 0001399  90.7908 269.3241 15.06393210228519
STARLINK-1301           
1 45361U 20019B   24124.91269335  .00001724  00000+0  13461-3 0  9993
2 45361  53.0516 295.8030 0000907  64.5821 295.5262 15.06395662228309
STARLINK-1306           
1 45362U 20019C   24125.55587651  .00000902  00000+0  79434-4 0  9999
2 45362  53.0548 312.9198 0001710  91.0990 269.0195 15.06398382228129
STARLINK-1313           
1 45364U 20019E   24124.72132761  .00035713  00000+0  10666-2 0  9995
2 45364  53.0220 237.8197 0001784 303.8704  56.2127 15.34292780229094
STARLINK-1262           
1 45366U 20019G   24125.54112822  .00000689  00000+0  65166-4 0  9995
2 45366  53.0532 312.9850 0001337  85.3346 274.7795 15.06397533228123
STARLINK-1273           
1 45367U 20019H   24125.23151060  .00000189  00000+0  31608-4 0  9998
2 45367  53.0538 314.3761 0001251  89.9124 270.2008 15.06401815228077
STARLINK-1276           
1 45368U 20019J   24125.53375653  .00002041  00000+0  15585-3 0  9992
2 45368  53.0538 313.0186 0001470  83.4542 276.6615 15.06402573228123
STARLINK-1277           
1 45369U 20019K   24125.24231410 -.00001193  00000+0 -62725-4 0  9991
2 45369  53.0533 314.7592 0001251  92.5043 267.6088 15.05591110228075
STARLINK-1281           
1 45370U 20019L   24125.25731548  .00001420  00000+0  11424-3 0  9991
2 45370  53.0525 314.2590 0001349  88.5345 271.5798 15.06398009228052
STARLINK-1287           
1 45371U 20019M   24124.85406466  .00009426  00000+0  82445-4 0  9991
2 45371  53.0534 299.3405 0001561 144.0928 216.0193 15.69747825228250
STARLINK-1288           
1 45372U 20019N   24124.77244245  .00000708  00000+0  10698-4 0  9993
2 45372  53.0524 299.3960 0000488  69.5226 290.5843 15.69711342228248
STARLINK-1295           
1 45373U 20019P   24125.54849448 -.00003884  00000+0 -24205-3 0  9994
2 45373  53.0543 312.9565 0001253 106.6451 253.4676 15.06390922228124
STARLINK-1300           
1 45374U 20019Q   24125.54481536  .00001654  00000+0  12987-3 0  9990
2 45374  53.0540 312.9700 0000957  81.0445 279.0652 15.06399302228121
STARLINK-1302           
1 45375U 20019R   24125.49321859  .00000770  00000+0  70600-4 0  9991
2 45375  53.0543 313.2017 0001150  89.5508 270.5613 15.06396371228114
STARLINK-1304           
1 45376U 20019S   24125.51164693  .00002367  00000+0  17776-3 0  9994
2 45376  53.0533 313.1193 0001351  95.1191 264.9953 15.06397036228115
STARLINK-1305           
1 45377U 20019T   24124.80762199  .00003851  00000+0  27716-3 0  9995
2 45377  53.0548 316.2776 0001485  91.6185 268.4974 15.06415479228018
STARLINK-1310           
1 45378U 20019U   24125.46262224  .00033432  00000+0  27314-3 0  9995
2 45378  53.0501 286.3073 0000769 348.0919  12.0079 15.70281112228489
STARLINK-1319           
1 45379U 20019V   24125.53008527  .00005083  00000+0  35986-3 0  9993
2 45379  53.0530 313.0326 0001499  94.3975 265.7185 15.06403035228120
STARLINK-1207           
1 45380U 20019W   24125.19649546 -.00000108  00000+0  11611-4 0  9993
2 45380  53.0517 294.5312 0001315  84.1659 275.9480 15.06402799228350
STARLINK-1258           
1 45381U 20019X   24125.20755154  .00002030  00000+0  15509-3 0  9993
2 45381  53.0528 294.4824 0000834  92.7981 267.3103 15.06400405228346
STARLINK-1266           
1 45383U 20019Z   24125.46556822  .00004108  00000+0  29447-3 0  9998
2 45383  53.0539 293.3253 0001379  84.1705 275.9441 15.06401977228387
STARLINK-1267           
1 45384U 20019AA  24125.45356509  .00001139  00000+0  95340-4 0  9995
2 45384  53.0531 293.3675 0001653  86.0786 274.0392 15.06397947228389
STARLINK-1272           
1 45386U 20019AC  24125.45820038  .00001120  00000+0  94066-4 0  9994
2 45386  53.0538 293.3570 0001681  84.3986 275.7195 15.06395328228386
STARLINK-1274           
1 45387U 20019AD  24125.48031249 -.00000826  00000+0 -36596-4 0  9994
2 45387  53.0534 293.2567 0001339  91.2365 268.8778 15.06395416228362
STARLINK-1280           
1 45388U 20019AE  24125.51533388  .00002109  00000+0  16044-3 0  9999
2 45388  53.0542 313.1025 0001658  83.7994 276.3183 15.06398384228115
STARLINK-1283           
1 45389U 20019AF  24125.16331528  .00001662  00000+0  13044-3 0  9993
2 45389  53.0506 294.6821 0001440  83.9414 276.1739 15.06402736228348
STARLINK-1284           
1 45390U 20019AG  24125.20386599  .00002573  00000+0  19156-3 0  9990
2 45390  53.0514 294.5005 0001201  92.2569 267.8558 15.06395635228346
STARLINK-1289           
1 45391U 20019AH  24125.48305103  .00000414  00000+0  46677-4 0  9994
2 45391  53.0535 293.2345 0001414  92.3790 267.7361 15.06395302228113
STARLINK-1291           
1 45393U 20019AK  24125.18175488  .00000741  00000+0  68632-4 0  9992
2 45393  53.0564 294.5992 0001514  84.0092 276.1069 15.06397181228108
STARLINK-1292           
1 45394U 20019AL  24124.87949696  .00006552  00000+0  45815-3 0  9991
2 45394  53.0540 295.9571 0001243  86.4692 273.6439 15.06416684228037
STARLINK-1297           
1 45395U 20019AM  24125.43975847  .00000697  00000+0  65655-4 0  9991
2 45395  53.0538 293.4407 0001244  96.5183 263.5947 15.06400572228147
STARLINK-1303           
1 45396U 20019AN  24125.48768337  .00001313  00000+0  10700-3 0  9997
2 45396  53.0536 293.2242 0001434  83.0559 277.0593 15.06398324228104
STARLINK-1307           
1 45397U 20019AP  24125.49874532  .00000736  00000+0  68290-4 0  9990
2 45397  53.0547 293.1743 0001624  89.4077 270.7099 15.06395477228217
STARLINK-1312           
1 45398U 20019AQ  24125.15963354 -.00001389  00000+0 -74378-4 0  9996
2 45398  53.0541 294.6950 0001302  81.3261 278.7875 15.06393808228099
STARLINK-1255           
1 45399U 20019AR  24125.46648424 -.00004589  00000+0 -28945-3 0  9992
2 45399  53.0534 283.3184 0001313  97.8868 262.2270 15.06390080228336
STARLINK-1213           
1 45400U 20019AS  24125.55610457  .00062477  00000+0  22840-2 0  9995
2 45400  53.0807 249.2439 0001319 225.7542 134.3349 15.27514842228763
STARLINK-1256           
1 45401U 20019AT  24125.14580251 -.00002888  00000+0 -17505-3 0  9994
2 45401  53.0530 284.7604 0001244  92.7336 267.3795 15.06408251228287
STARLINK-1259           
1 45403U 20019AV  24125.42225927  .00001767  00000+0  13752-3 0  9996
2 45403  53.0553 283.5206 0001301 118.0287 242.0834 15.06393009228323
STARLINK-1260           
1 45404U 20019AW  24125.16792847  .00000822  00000+0  74085-4 0  9996
2 45404  53.0550 284.6588 0001594  87.7378 272.3793 15.06397977228196
STARLINK-1263           
1 45405U 20019AX  24125.15318356  .00001832  00000+0  14187-3 0  9993
2 45405  53.0536 284.7279 0001329  90.1218 269.9923 15.06402664228193
STARLINK-1265           
1 45406U 20019AY  24125.42594731  .00001954  00000+0  15006-3 0  9993
2 45406  53.0543 283.5042 0001360  97.2883 262.8260 15.06394365228237
STARLINK-1275           
1 45407U 20019AZ  24125.25001157  .00037640  00000+0  16453-2 0  9997
2 45407  53.0550 283.7056 0001004  74.7388 278.4528 15.21754662228202
STARLINK-1278           
1 45408U 20019BA  24125.25362976  .00000967  00000+0  83797-4 0  9996
2 45408  53.0534 314.2755 0001234  91.3890 268.7240 15.06399454227792
STARLINK-1282           
1 45409U 20019BB  24125.44806190  .00000499  00000+0  52367-4 0  9998
2 45409  53.0552 283.4034 0001212 107.4322 252.6800 15.06397917228242
STARLINK-1293           
1 45411U 20019BD  24125.46280330  .00000839  00000+0  75219-4 0  9994
2 45411  53.0534 283.3366 0001322  87.1745 272.9395 15.06395306228241
STARLINK-1296           
1 45412U 20019BE  24125.16424623  .00001391  00000+0  11230-3 0  9993
2 45412  53.0532 284.6770 0001743  85.5258 274.5930 15.06397742228194
STARLINK-1298           
1 45413U 20019BF  24125.45911693  .00001095  00000+0  92420-4 0  9996
2 45413  53.0533 283.3543 0001117  81.5884 278.5232 15.06396844228333
STARLINK-1309           
1 45414U 20019BG  24125.17898230 -.00000119  00000+0  10881-4 0  9995
2 45414  53.0549 284.6144 0001369  91.5810 268.5336 15.06403903228206
STARLINK-1316           
1 45415U 20019BH  24125.13843898  .00000760  00000+0  69904-4 0  9993
2 45415  53.0516 284.7903 0001170  79.3797 280.7323 15.06399306228217
STARLINK-1318           
1 45416U 20019BJ  24125.17161087  .00001859  00000+0  14364-3 0  9990
2 45416  53.0543 284.6460 0001528  81.0506 279.0655 15.06414760228200
STARLINK-1286           
1 45417U 20019BK  24124.84447732 -.00001209  00000+0 -62225-4 0  9999
2 45417  53.0548 316.1136 0001440  92.0977 268.0177 15.06416603228007
STARLINK-1308           
1 45419U 20019BM  24125.50426944  .00000685  00000+0  64888-4 0  9999
2 45419  53.0534 313.1485 0001205  92.2694 267.8433 15.06394680227859
STARLINK-1329           
1 45531U 20025A   24125.53928645 -.00000693  00000+0 -27680-4 0  9999
2 45531  53.0519 252.9923 0001261  52.5190 307.5914 15.06388391222882
STARLINK-1338           
1 45532U 20025B   24125.55035342  .00000881  00000+0  78086-4 0  9998
2 45532  53.0535 252.9453 0001499  82.8031 277.3128 15.06389136222904
STARLINK-1341           
1 45534U 20025D   24125.56140961 -.00002514  00000+0 -14999-3 0  9994
2 45534  53.0536 252.8976 0001259  83.6634 276.4498 15.06385431222890
STARLINK-1350           
1 45535U 20025E   24125.51349108 -.00004035  00000+0 -25213-3 0  9995
2 45535  53.0551 253.1099 0001843 112.1284 247.9901 15.06394045222899
STARLINK-1352           
1 45536U 20025F   24125.51717752 -.00000972  00000+0 -46398-4 0  9994
2 45536  53.0557 253.0939 0001717  96.2667 263.8518 15.06379142222897
STARLINK-1362           
1 45538U 20025H   24125.05175931 -.00007261  00000+0 -46910-3 0  9999
2 45538  53.0546 254.9051 0001706  91.0977 269.0207 15.06396063222824
STARLINK-1368           
1 45540U 20025K   24125.52086405 -.00002466  00000+0 -14678-3 0  9999
2 45540  53.0537 253.0760 0001407  99.3822 260.7326 15.06385126222897
